CCSDS_OMM_VERS = 2.0
CREATION_DATE  = 
ORIGINATOR     = 

OBJECT_NAME    = COSMOS 1933
OBJECT_ID      = 1988-020A
CENTER_NAME    = EARTH
REF_FRAME      = TEME
TIME_SYSTEM    = UTC
MEAN_ELEMENT_THEORY = SGP/SGP4

EPOCH          = 2026-02-28T15:03:01.617984
MEAN_MOTION    = 15.17886534
ECCENTRICITY   = .0003112
INCLINATION    = 82.5097
RA_OF_ASC_NODE = 259.8806
ARG_OF_PERICENTER = 215.9542
MEAN_ANOMALY   = 144.1483

EPHEMERIS_TYPE = 0
CLASSIFICATION_TYPE = U
NORAD_CAT_ID   = 18958
ELEMENT_SET_NO = 999
REV_AT_EPOCH   = 4885
BSTAR          = .23881E-3
MEAN_MOTION_DOT = .4868E-4
MEAN_MOTION_DDOT = 0

CCSDS_OMM_VERS = 2.0
CREATION_DATE  = 
ORIGINATOR     = 

OBJECT_NAME    = SL-3 R/B
OBJECT_ID      = 1988-032B
CENTER_NAME    = EARTH
REF_FRAME      = TEME
TIME_SYSTEM    = UTC
MEAN_ELEMENT_THEORY = SGP/SGP4

EPOCH          = 2026-02-28T20:15:56.757024
MEAN_MOTION    = 15.19780985
ECCENTRICITY   = .0024078
INCLINATION    = 97.5172
RA_OF_ASC_NODE = 43.1281
ARG_OF_PERICENTER = 264.7488
MEAN_ANOMALY   = 95.1000

EPHEMERIS_TYPE = 0
CLASSIFICATION_TYPE = U
NORAD_CAT_ID   = 19046
ELEMENT_SET_NO = 999
REV_AT_EPOCH   = 5076
BSTAR          = .28698E-3
MEAN_MOTION_DOT = .6118E-4
MEAN_MOTION_DDOT = 0

CCSDS_OMM_VERS = 2.0
CREATION_DATE  = 
ORIGINATOR     = 

OBJECT_NAME    = SL-16 R/B
OBJECT_ID      = 1988-039B
CENTER_NAME    = EARTH
REF_FRAME      = TEME
TIME_SYSTEM    = UTC
MEAN_ELEMENT_THEORY = SGP/SGP4

EPOCH          = 2026-02-28T12:55:09.994368
MEAN_MOTION    = 14.19614626
ECCENTRICITY   = .0022218
INCLINATION    = 71.0129
RA_OF_ASC_NODE = 87.9002
ARG_OF_PERICENTER = 347.9306
MEAN_ANOMALY   = 12.1284

EPHEMERIS_TYPE = 0
CLASSIFICATION_TYPE = U
NORAD_CAT_ID   = 19120
ELEMENT_SET_NO = 999
REV_AT_EPOCH   = 95708
BSTAR          = .10804E-3
MEAN_MOTION_DOT = .181E-5
MEAN_MOTION_DDOT = 0

CCSDS_OMM_VERS = 2.0
CREATION_DATE  = 
ORIGINATOR     = 

OBJECT_NAME    = COSMOS 1953
OBJECT_ID      = 1988-050A
CENTER_NAME    = EARTH
REF_FRAME      = TEME
TIME_SYSTEM    = UTC
MEAN_ELEMENT_THEORY = SGP/SGP4

EPOCH          = 2026-02-28T17:19:29.743392
MEAN_MOTION    = 15.28327734
ECCENTRICITY   = .0012148
INCLINATION    = 82.5110
RA_OF_ASC_NODE = 167.2622
ARG_OF_PERICENTER = 151.6050
MEAN_ANOMALY   = 208.5854

EPHEMERIS_TYPE = 0
CLASSIFICATION_TYPE = U
NORAD_CAT_ID   = 19210
ELEMENT_SET_NO = 999
REV_AT_EPOCH   = 3641
BSTAR          = .31682E-3
MEAN_MOTION_DOT = .8791E-4
MEAN_MOTION_DDOT = 0

CCSDS_OMM_VERS = 2.0
CREATION_DATE  = 
ORIGINATOR     = 

OBJECT_NAME    = SL-8 R/B
OBJECT_ID      = 1988-053B
CENTER_NAME    = EARTH
REF_FRAME      = TEME
TIME_SYSTEM    = UTC
MEAN_ELEMENT_THEORY = SGP/SGP4

EPOCH          = 2026-02-28T15:15:18.540864
MEAN_MOTION    = 14.38909310
ECCENTRICITY   = .0021175
INCLINATION    = 74.0473
RA_OF_ASC_NODE = 129.1554
ARG_OF_PERICENTER = 309.8282
MEAN_ANOMALY   = 201.2807

EPHEMERIS_TYPE = 0
CLASSIFICATION_TYPE = U
NORAD_CAT_ID   = 19257
ELEMENT_SET_NO = 999
REV_AT_EPOCH   = 97529
BSTAR          = .86301E-4
MEAN_MOTION_DOT = .24E-5
MEAN_MOTION_DDOT = 0

CCSDS_OMM_VERS = 2.0
CREATION_DATE  = 
ORIGINATOR     = 

OBJECT_NAME    = COSMOS 1975
OBJECT_ID      = 1988-093A
CENTER_NAME    = EARTH
REF_FRAME      = TEME
TIME_SYSTEM    = UTC
MEAN_ELEMENT_THEORY = SGP/SGP4

EPOCH          = 2026-02-28T16:30:01.941408
MEAN_MOTION    = 15.27904670
ECCENTRICITY   = .001129
INCLINATION    = 82.5206
RA_OF_ASC_NODE = 126.7204
ARG_OF_PERICENTER = 194.7926
MEAN_ANOMALY   = 165.2985

EPHEMERIS_TYPE = 0
CLASSIFICATION_TYPE = U
NORAD_CAT_ID   = 19573
ELEMENT_SET_NO = 999
REV_AT_EPOCH   = 1803
BSTAR          = .28307E-3
MEAN_MOTION_DOT = .7754E-4
MEAN_MOTION_DDOT = 0

CCSDS_OMM_VERS = 2.0
CREATION_DATE  = 
ORIGINATOR     = 

OBJECT_NAME    = SL-14 R/B
OBJECT_ID      = 1988-093B
CENTER_NAME    = EARTH
REF_FRAME      = TEME
TIME_SYSTEM    = UTC
MEAN_ELEMENT_THEORY = SGP/SGP4

EPOCH          = 2026-02-28T17:24:25.155360
MEAN_MOTION    = 14.85643302
ECCENTRICITY   = .0022239
INCLINATION    = 82.5287
RA_OF_ASC_NODE = 50.4601
ARG_OF_PERICENTER = 69.4264
MEAN_ANOMALY   = 103.3775

EPHEMERIS_TYPE = 0
CLASSIFICATION_TYPE = U
NORAD_CAT_ID   = 19574
ELEMENT_SET_NO = 999
REV_AT_EPOCH   = 99970
BSTAR          = .67502E-4
MEAN_MOTION_DOT = .612E-5
MEAN_MOTION_DDOT = 0

CCSDS_OMM_VERS = 2.0
CREATION_DATE  = 
ORIGINATOR     = 

OBJECT_NAME    = SL-16 R/B
OBJECT_ID      = 1988-102B
CENTER_NAME    = EARTH
REF_FRAME      = TEME
TIME_SYSTEM    = UTC
MEAN_ELEMENT_THEORY = SGP/SGP4

EPOCH          = 2026-02-28T17:20:13.117920
MEAN_MOTION    = 14.16149666
ECCENTRICITY   = .0013411
INCLINATION    = 71.0001
RA_OF_ASC_NODE = 170.3635
ARG_OF_PERICENTER = 15.2361
MEAN_ANOMALY   = 344.9163

EPHEMERIS_TYPE = 0
CLASSIFICATION_TYPE = U
NORAD_CAT_ID   = 19650
ELEMENT_SET_NO = 999
REV_AT_EPOCH   = 92562
BSTAR          = -.78563E-4
MEAN_MOTION_DOT = -.203E-5
MEAN_MOTION_DDOT = 0

CCSDS_OMM_VERS = 2.0
CREATION_DATE  = 
ORIGINATOR     = 

OBJECT_NAME    = INTERCOSMOS 24
OBJECT_ID      = 1989-080A
CENTER_NAME    = EARTH
REF_FRAME      = TEME
TIME_SYSTEM    = UTC
MEAN_ELEMENT_THEORY = SGP/SGP4

EPOCH          = 2026-02-28T14:07:54.715008
MEAN_MOTION    = 12.59541469
ECCENTRICITY   = .1186918
INCLINATION    = 82.6036
RA_OF_ASC_NODE = 110.3304
ARG_OF_PERICENTER = 313.9653
MEAN_ANOMALY   = 36.9264

EPHEMERIS_TYPE = 0
CLASSIFICATION_TYPE = U
NORAD_CAT_ID   = 20261
ELEMENT_SET_NO = 999
REV_AT_EPOCH   = 66565
BSTAR          = .1952E-3
MEAN_MOTION_DOT = .659E-5
MEAN_MOTION_DDOT = 0

CCSDS_OMM_VERS = 2.0
CREATION_DATE  = 
ORIGINATOR     = 

OBJECT_NAME    = SL-14 R/B
OBJECT_ID      = 1989-080C
CENTER_NAME    = EARTH
REF_FRAME      = TEME
TIME_SYSTEM    = UTC
MEAN_ELEMENT_THEORY = SGP/SGP4

EPOCH          = 2026-02-28T20:00:27.908640
MEAN_MOTION    = 12.50479953
ECCENTRICITY   = .1230225
INCLINATION    = 82.5971
RA_OF_ASC_NODE = 178.8698
ARG_OF_PERICENTER = 204.9885
MEAN_ANOMALY   = 148.6501

EPHEMERIS_TYPE = 0
CLASSIFICATION_TYPE = U
NORAD_CAT_ID   = 20262
ELEMENT_SET_NO = 999
REV_AT_EPOCH   = 65904
BSTAR          = .1919E-3
MEAN_MOTION_DOT = .645E-5
MEAN_MOTION_DDOT = 0

CCSDS_OMM_VERS = 2.0
CREATION_DATE  = 
ORIGINATOR     = 

OBJECT_NAME    = DELTA 1 R/B
OBJECT_ID      = 1989-089B
CENTER_NAME    = EARTH
REF_FRAME      = TEME
TIME_SYSTEM    = UTC
MEAN_ELEMENT_THEORY = SGP/SGP4

EPOCH          = 2026-02-28T12:22:58.596672
MEAN_MOTION    = 14.50654226
ECCENTRICITY   = .0069866
INCLINATION    = 97.0712
RA_OF_ASC_NODE = 268.4135
ARG_OF_PERICENTER = 150.5608
MEAN_ANOMALY   = 209.9554

EPHEMERIS_TYPE = 0
CLASSIFICATION_TYPE = U
NORAD_CAT_ID   = 20323
ELEMENT_SET_NO = 999
REV_AT_EPOCH   = 89440
BSTAR          = .10565E-3
MEAN_MOTION_DOT = .393E-5
MEAN_MOTION_DDOT = 0

CCSDS_OMM_VERS = 2.0
CREATION_DATE  = 
ORIGINATOR     = 

OBJECT_NAME    = ARIANE 40 R/B
OBJECT_ID      = 1990-005H
CENTER_NAME    = EARTH
REF_FRAME      = TEME
TIME_SYSTEM    = UTC
MEAN_ELEMENT_THEORY = SGP/SGP4

EPOCH          = 2026-02-28T18:42:43.164864
MEAN_MOTION    = 14.39863416
ECCENTRICITY   = .0009314
INCLINATION    = 98.3103
RA_OF_ASC_NODE = 120.7058
ARG_OF_PERICENTER = 226.4590
MEAN_ANOMALY   = 133.5826

EPHEMERIS_TYPE = 0
CLASSIFICATION_TYPE = U
NORAD_CAT_ID   = 20443
ELEMENT_SET_NO = 999
REV_AT_EPOCH   = 89152
BSTAR          = .10034E-3
MEAN_MOTION_DOT = .273E-5
MEAN_MOTION_DDOT = 0

