COSMOS 1933             
1 18958U 88020A   26059.62710206  .00004868  00000+0  23881-3 0  9995
2 18958  82.5097 259.8806 0003112 215.9542 144.1483 15.17886534 48855
SL-3 R/B                
1 19046U 88032B   26059.84440691  .00006118  00000+0  28698-3 0  9990
2 19046  97.5172  43.1281 0024078 264.7488  95.1000 15.19780985 50768
SL-16 R/B               
1 19120U 88039B   26059.53831012  .00000181  00000+0  10804-3 0  9991
2 19120  71.0129  87.9002 0022218 347.9306  12.1284 14.19614626957085
COSMOS 1953             
1 19210U 88050A   26059.72187203  .00008791  00000+0  31682-3 0  9993
2 19210  82.5110 167.2622 0012148 151.6050 208.5854 15.28327734 36410
SL-8 R/B                
1 19257U 88053B   26059.63563126  .00000240  00000+0  86301-4 0  9999
2 19257  74.0473 129.1554 0021175 309.8282 201.2807 14.38909310975296
COSMOS 1975             
1 19573U 88093A   26059.68752247  .00007754  00000+0  28307-3 0  9991
2 19573  82.5206 126.7204 0011290 194.7926 165.2985 15.27904670 18032
SL-14 R/B               
1 19574U 88093B   26059.72529115  .00000612  00000+0  67502-4 0  9990
2 19574  82.5287  50.4601 0022239  69.4264 103.3775 14.85643302999701
SL-16 R/B               
1 19650U 88102B   26059.72237405 -.00000203  00000+0 -78563-4 0  9991
2 19650  71.0001 170.3635 0013411  15.2361 344.9163 14.16149666925623
INTERCOSMOS 24          
1 20261U 89080A   26059.58882772  .00000659  00000+0  19520-3 0  9994
2 20261  82.6036 110.3304 1186918 313.9653  36.9264 12.59541469665658
SL-14 R/B               
1 20262U 89080C   26059.83365635  .00000645  00000+0  19190-3 0  9995
2 20262  82.5971 178.8698 1230225 204.9885 148.6501 12.50479953659048
DELTA 1 R/B             
1 20323U 89089B   26059.51595598  .00000393  00000+0  10565-3 0  9997
2 20323  97.0712 268.4135 0069866 150.5608 209.9554 14.50654226894401
ARIANE 40 R/B           
1 20443U 90005H   26059.77966626  .00000273  00000+0  10034-3 0  9990
2 20443  98.3103 120.7058 0009314 226.4590 133.5826 14.39863416891525
